GEOSCAN 3 (RS92S3)      
1 64893U 25155T   26203.24228554  .00019786  00000+0  55671-3 0  9990
2 64893  97.4557 173.5609 0008226  69.1564 291.0560 15.36486379 86233
INNOSAT 3 (RS92S0)      
1 64894U 25155U   26203.28501128  .00044796  00000+0  90816-3 0  9995
2 64894  97.4500 175.6897 0007762  74.8522 285.3585 15.46227434 86380
KNACKSAT-2              
1 67683U 98067XZ  26203.29327371  .00059126  00000+0  63977-3 0  9994
2 67683  51.6273 117.4838 0007645 351.5351   8.5513 15.62970519 25760
