OBJECT_NAME,OBJECT_ID,EPOCH,MEAN_MOTION,ECCENTRICITY,INCLINATION,RA_OF_ASC_NODE,ARG_OF_PERICENTER,MEAN_ANOMALY,EPHEMERIS_TYPE,CLASSIFICATION_TYPE,NORAD_CAT_ID,ELEMENT_SET_NO,REV_AT_EPOCH,BSTAR,MEAN_MOTION_DOT,MEAN_MOTION_DDOT
GEOSCAN 3 (RS92S3),2025-155T,2026-07-22T05:48:53.470656,15.36486379,.00082267,97.4557,173.5609,69.1564,291.0560,0,U,64893,999,8623,.5567106E-3,.19786E-3,0
INNOSAT 3 (RS92S0),2025-155U,2026-07-22T06:50:24.974592,15.46227434,.00077621,97.4500,175.6897,74.8522,285.3585,0,U,64894,999,8638,.90815558E-3,.44796E-3,0
KNACKSAT-2,1998-067XZ,2026-07-22T07:02:18.848544,15.62970519,.00076456,51.6273,117.4838,351.5351,8.5513,0,U,67683,999,2576,.63976601E-3,.59126E-3,0
